STARLINK-2564           
1 48284U 21036J   26068.40419706 -.00002535  00000+0 -73526-4 0  9994
2 48284  53.1593  77.1004 0001545  91.2892 268.8285 15.30187265268350
EOSSAT-1                
1 55053U 23001AW  26068.73619225  .00007695  00000+0  24844-3 0  9992
2 55053  97.3357 130.2294 0011263 110.3168 249.9285 15.32339828176689
